[{"OBJECT_NAME":"APRIZESAT 3","OBJECT_ID":"2009-041F","EPOCH":"2026-03-09T21:53:07.275264","MEAN_MOTION":14.95902996,"ECCENTRICITY":0.00628853,"INCLINATION":98.1904,"RA_OF_ASC_NODE":217.4844,"ARG_OF_PERICENTER":35.8471,"MEAN_ANOMALY":324.6944,"EPHEMERIS_TYPE":0,"CLASSIFICATION_TYPE":"U","NORAD_CAT_ID":35686,"ELEMENT_SET_NO":999,"REV_AT_EPOCH":90153,"BSTAR":0.00014818153,"MEAN_MOTION_DOT":1.656e-5,"MEAN_MOTION_DDOT":0},{"OBJECT_NAME":"STARLINK-3743","OBJECT_ID":"2022-029AG","EPOCH":"2026-03-09T09:44:01.241952","MEAN_MOTION":15.08837415,"ECCENTRICITY":0.00013949,"INCLINATION":53.2172,"RA_OF_ASC_NODE":80.3961,"ARG_OF_PERICENTER":96.216,"MEAN_ANOMALY":263.8991,"EPHEMERIS_TYPE":0,"CLASSIFICATION_TYPE":"U","NORAD_CAT_ID":52118,"ELEMENT_SET_NO":999,"REV_AT_EPOCH":22074,"BSTAR":5.5759885e-5,"MEAN_MOTION_DOT":6.0e-6,"MEAN_MOTION_DDOT":0}]
